{
  "type": "FeatureCollection",
  "features": [
    {
      "type": "Feature",
      "id": 2571591,
      "geometry": {
        "type": "LineString",
        "coordinates": [
          [
            -90.53802455599998,
            31.349559348000014
          ],
          [
            -90.52682630800001,
            31.357735346000027
          ],
          [
            -90.521538684,
            31.35954596900001
          ],
          [
            -90.51578802799997,
            31.362917359999983
          ],
          [
            -90.51441514499999,
            31.36447569400002
          ],
          [
            -90.51477992500003,
            31.36605138499999
          ],
          [
            -90.51559531700002,
            31.368066766000027
          ],
          [
            -90.51701152300001,
            31.372555411000008
          ],
          [
            -90.51722610000002,
            31.37576145600002
          ],
          [
            -90.51664674199998,
            31.377520154000024
          ],
          [
            -90.514865756,
            31.379113944999972
          ],
          [
            -90.50993049099998,
            31.38134887199999
          ],
          [
            -90.49724859899999,
            31.387612769999976
          ],
          [
            -90.49063963600003,
            31.39215543199998
          ],
          [
            -90.48051161500001,
            31.395891973999994
          ],
          [
            -90.47424597399998,
            31.401386617000014
          ],
          [
            -90.46904418100002,
            31.40718889499999
          ],
          [
            -90.46732756699998,
            31.40931327300001
          ],
          [
            -90.46363684800002,
            31.415393123
          ]
        ]
      },
      "properties": {
        "objectid": 2571591,
        "event_id": "Norfield Tornado",
        "stormdate": 1771134360000,
        "starttime": 1771134360000,
        "endtime": 1771134840000,
        "startlat": 31.3496,
        "startlon": -90.538,
        "endlat": 31.4154,
        "endlon": -90.4636,
        "length": 6.8604,
        "width": 800,
        "injuries": 0,
        "fatalities": 0,
        "efscale": "EF1",
        "efnum": 1,
        "qc": "Y",
        "maxwind": 110,
        "globalid": "{26716401-A91B-488F-9C55-379EFEA107ED}",
        "cropdamage": 0,
        "propdamage": 0,
        "edit_user": null,
        "edit_time": null,
        "created_user": "dat_editor",
        "created_date": 1771182473000,
        "last_edited_user": "dat_editor",
        "last_edited_date": 1774663145000,
        "comments": "This tornado began near the Pike Lincoln County line and tracked northeastward across southern Lincoln County, snapping and uprooted numerous trees along its path. The broad damage footprint with embedded areas of more concentrated damage suggests this path consisted of multiple vortices originating from the same parent mesocyclone. Tree damage was most prolific west of I-55 along Jack Lane, Summit Drive, Beachnut Trail, Wallace Drive, Montgomery Road, Dry Creek Trail, and Homesville Road. A house on Jack Lane sustained shingle damage, and outbuildings were damaged on Montgomery Road, Beachnut Trail, and Big Creek Drive. A mobile home was also damage along Beachnut. The tornado crossed I-55 about two miles south of the Bogue Chitto exit, then weakened and lifted as it moved through the Norfield community. This tornado may have began farther southwest, and additional surveys are planned to determine the correct starting point.",
        "st_length(shape)": 0.10849737666151509,
        "wfo": "JAN"
      }
    },
    {
      "type": "Feature",
      "id": 2571592,
      "geometry": {
        "type": "LineString",
        "coordinates": [
          [
            -90.40877295400003,
            31.48760907799999
          ],
          [
            -90.408483827,
            31.48809365400001
          ],
          [
            -90.40438541200001,
            31.49519300999998
          ],
          [
            -90.396961057,
            31.506792342999972
          ],
          [
            -90.39010477900001,
            31.516177192999976
          ]
        ]
      },
      "properties": {
        "objectid": 2571592,
        "event_id": "Enterprise Tornado",
        "stormdate": 1771135320000,
        "starttime": 1771135320000,
        "endtime": 1771135500000,
        "startlat": 31.4876,
        "startlon": -90.4088,
        "endlat": 31.5162,
        "endlon": -90.3901,
        "length": 2.2574,
        "width": 200,
        "injuries": 0,
        "fatalities": 0,
        "efscale": "EF1",
        "efnum": 1,
        "qc": "Y",
        "maxwind": 100,
        "globalid": "{F5A5C8FA-B54F-465D-9864-15EA557CD815}",
        "cropdamage": 0,
        "propdamage": 0,
        "edit_user": null,
        "edit_time": null,
        "created_user": "dat_editor",
        "created_date": 1771185405000,
        "last_edited_user": "dat_editor",
        "last_edited_date": 1771421472000,
        "comments": "This tornado began near Mount Olive Road and tracked northeastward across Shell Oil Lane and MS Highway 583 before lifting near Highway 583 and Bethel Road. Along the tornado path, the roof of an outbuilding was damage on Shell Oil Lane and a house on Highway 583 sustained roof damage. Several trees were snapped and uprooted.",
        "st_length(shape)": 0.034156181875874825,
        "wfo": "JAN"
      }
    },
    {
      "type": "Feature",
      "id": 2571604,
      "geometry": {
        "type": "LineString",
        "coordinates": [
          [
            -90.28842967499997,
            30.590916752999988
          ],
          [
            -90.27957004000001,
            30.59186904500001
          ],
          [
            -90.26792994099998,
            30.592248179000023
          ],
          [
            -90.26149263899998,
            30.59226665
          ],
          [
            -90.25007715800001,
            30.592580655999996
          ],
          [
            -90.24726620299998,
            30.593374902999983
          ],
          [
            -90.24228802300001,
            30.594261496
          ],
          [
            -90.23428431100001,
            30.594760201999975
          ],
          [
            -90.224705997,
            30.595449589999987
          ],
          [
            -90.218054118,
            30.595486530000017
          ],
          [
            -90.20814067399999,
            30.597998469999993
          ],
          [
            -90.19809848300002,
            30.601101362999998
          ],
          [
            -90.181660379,
            30.605441798000015
          ],
          [
            -90.13496848400001,
            30.60680845600001
          ]
        ]
      },
      "properties": {
        "objectid": 2571604,
        "event_id": "Folsom",
        "stormdate": 1771137720000,
        "starttime": 1771137720000,
        "endtime": 1771138560000,
        "startlat": 30.5909,
        "startlon": -90.2884,
        "endlat": 30.6068,
        "endlon": -90.135,
        "length": 9.2759,
        "width": 75,
        "injuries": 0,
        "fatalities": 0,
        "efscale": "EF1",
        "efnum": 1,
        "qc": "Y",
        "maxwind": 95,
        "globalid": "{26FC0AA5-23CD-4FC5-85DA-340AF36D39E5}",
        "cropdamage": 0,
        "propdamage": 0,
        "edit_user": null,
        "edit_time": null,
        "created_user": "dat_editor",
        "created_date": 1771206351000,
        "last_edited_user": "dat_editor",
        "last_edited_date": 1780950083000,
        "comments": "An EF-1 tornado touched down along August Ln, just west of Polo Rd, where it damaged trees and a roof of a residence. It moved east along Polo Rd with sporadic tree damage. The heaviest tree damage occurred along Spirit of the Forest Ln and River Trace Rd where more than a dozen very large trees were uprooted or snapped. Periodic tree and large limb damage occurred along the remainder of the path until the tornado lifted in the Merrywood Estates subdivision. Path length was 9.3 miles. Max width was 75 yards. Estimated maximum winds around 95 mph.",
        "st_length(shape)": 0.1551166560493322,
        "wfo": "LIX"
      }
    },
    {
      "type": "Feature",
      "id": 2571612,
      "geometry": {
        "type": "LineString",
        "coordinates": [
          [
            -91.156417412,
            31.037642386000016
          ],
          [
            -91.10270408899999,
            31.05938183799998
          ],
          [
            -91.057695427,
            31.075082302
          ],
          [
            -91.04955377599998,
            31.078713634999986
          ],
          [
            -91.02966966999998,
            31.085631536999983
          ]
        ]
      },
      "properties": {
        "objectid": 2571612,
        "event_id": "Centreville",
        "stormdate": 1771131240000,
        "starttime": 1771131240000,
        "endtime": 1771131840000,
        "startlat": 31.0376,
        "startlon": -91.1564,
        "endlat": 31.0856,
        "endlon": -91.0297,
        "length": 8.2157,
        "width": 100,
        "injuries": 0,
        "fatalities": 0,
        "efscale": "EF1",
        "efnum": 1,
        "qc": "Y",
        "maxwind": 90,
        "globalid": "{8A801829-5A1A-4FFA-8BF8-C520D3FB82AC}",
        "cropdamage": 0,
        "propdamage": 0,
        "edit_user": null,
        "edit_time": null,
        "created_user": "dat_editor",
        "created_date": 1771334908000,
        "last_edited_user": "dat_editor",
        "last_edited_date": 1780950083000,
        "comments": "An EF-1 tornado touched down along Ancil Cox Road on the southwest\nside of Centreville near Griffin Lane. A few trees were downed\nhere, with at least one of them taking down a powerline. The\ntornado tracked northeast, generally paralleling Ancil Cox Road until reaching the intersection with Old Highway 33. The most significant damage occurred near this intersection, where approximately a dozen trees were uprooted or snapped which\nsupports the 90 mph wind rating. Beyond this point, the tornado\ncontinued northeastward producing sporadic tree and limb damage\nalong its path. The final accessible point of the tornado\u2019s track was near Centerville Academy. Minor damage was observed on campus, including a downed light pole, partial roof uplift on a metal building, and a baseball pitching backstop that was thrown\napproximately 250 feet into a chain-link fence. The tornado continued northeast beyond Lower Centreville Rd where additional minor tree damage was identified. The tornado evidently lifted over inaccessible areas to the survey team prior to reaching Hwy 48.",
        "st_length(shape)": 0.1355822754541906,
        "wfo": "LIX"
      }
    },
    {
      "type": "Feature",
      "id": 2571615,
      "geometry": {
        "type": "LineString",
        "coordinates": [
          [
            -90.56266186800002,
            31.333139657000004
          ],
          [
            -90.54377911400002,
            31.344848641999988
          ],
          [
            -90.53801266599999,
            31.349568224999985
          ]
        ]
      },
      "properties": {
        "objectid": 2571615,
        "event_id": "Pike/Lincoln",
        "stormdate": 1771134240000,
        "starttime": 1771134240000,
        "endtime": 1771134360000,
        "startlat": 31.3331,
        "startlon": -90.5627,
        "endlat": 31.3496,
        "endlon": -90.538,
        "length": 1.8486,
        "width": 50,
        "injuries": 0,
        "fatalities": 0,
        "efscale": "EF0",
        "efnum": 0,
        "qc": "Y",
        "maxwind": 80,
        "globalid": "{2BE58E9B-FD4E-43A8-8D98-9BAEA4DC6F66}",
        "cropdamage": 0,
        "propdamage": 0,
        "edit_user": null,
        "edit_time": null,
        "created_user": "dat_editor",
        "created_date": 1771335891000,
        "last_edited_user": "dat_editor",
        "last_edited_date": 1780950083000,
        "comments": "An EF-0 tornado with maximum sustained winds estimated near 80 mph touched down near US Hwy 98 in far northeast Amite County, MS causing minor tree damage and removing a few metal panels from an outbuilding. The tornado continued northeast into Pike County where additional minor tree damage was found on Kenna Rd. This tornado continued northeast into Lincoln County, MS where it strengthened into a large, strong EF-1 tornado with maximum sustained winds near 110 mph southwest of Norfield, MS in NWS Jackson's area.",
        "st_length(shape)": 0.029670035106191518,
        "wfo": "JAN,LIX"
      }
    },
    {
      "type": "Feature",
      "id": 2571622,
      "geometry": {
        "type": "LineString",
        "coordinates": [
          [
            -91.03970301700002,
            30.074467941000023
          ],
          [
            -91.026627077,
            30.08010151000002
          ],
          [
            -91.011004764,
            30.082589573000007
          ],
          [
            -90.99435361000002,
            30.082830949000027
          ],
          [
            -90.95886261999999,
            30.08292378599998
          ],
          [
            -90.93590291100003,
            30.087157048999984
          ],
          [
            -90.91615112400001,
            30.09349548
          ],
          [
            -90.85560830200001,
            30.10115523500002
          ],
          [
            -90.77722342599998,
            30.131966535000004
          ],
          [
            -90.75456412400001,
            30.142952335000018
          ]
        ]
      },
      "properties": {
        "objectid": 2571622,
        "event_id": "Donaldsonville",
        "stormdate": 1771135560000,
        "starttime": 1771135560000,
        "endtime": 1771136880000,
        "startlat": 30.0745,
        "startlon": -91.0397,
        "endlat": 30.143,
        "endlon": -90.7546,
        "length": 17.9856,
        "width": 200,
        "injuries": 0,
        "fatalities": 0,
        "efscale": "EF1",
        "efnum": 1,
        "qc": "Y",
        "maxwind": 105,
        "globalid": "{E2A61189-B8EC-4F66-AC97-3DD38F6A7D11}",
        "cropdamage": 0,
        "propdamage": 0,
        "edit_user": null,
        "edit_time": null,
        "created_user": "dat_editor",
        "created_date": 1771443552000,
        "last_edited_user": "dat_editor",
        "last_edited_date": 1780950083000,
        "comments": "An NWS Storm Survey team determined that an EF-1 tornado with peak winds of 105 mph embedded in a line of storms touched down just north of the Ascension/Assumption Parish line shortly after midnight on February 15th. This tornado started by snapping large branches and uprooting a tree on Te Nom Landry Rd and Highway 308 south. It continued moving east-northeast over open fields until reaching the intersection of Highway 3089 and Highway 70. Here, the tornado strengthened to EF-1 intensity where a power pole and tree trunk were snapped. This tornado maintained intensity as it continued moving to the east-northeast where it snapped a series of powerlines off of Baxter Rd on the south side of the CF Industries complex. The tornado then started to intensify to peak intensity as it crossed into St. James Parish while moving through mainly open fields before it hit a series of powerlines in an open field, snapping 4 lines. It maintained strength as it crossed another open field along Badger Rd before snapping another series of powerlines along Highway 18. The tornado appeared to weaken as it continued to move east-northeast across the Mississippi River. When the tornado reached Highway 3125, it partially snapped/bent another powerline. The tornado then moved into the marsh north of Highway 3025 before reaching Highway 61 where it uprooted another tree. The last damage point for this tornado is along I-10 where it snapped more large branches. This track remains preliminary and additional changes could occur after further review of high-resolution satellite imagery in the coming weeks.",
        "st_length(shape)": 0.2967221786098717,
        "wfo": "LIX"
      }
    },
    {
      "type": "Feature",
      "id": 2571623,
      "geometry": {
        "type": "LineString",
        "coordinates": [
          [
            -91.08638556599999,
            30.139129712
          ],
          [
            -91.02733405200001,
            30.140020434000007
          ],
          [
            -90.99810870300001,
            30.138090526999974
          ],
          [
            -90.96581490599999,
            30.133673868000017
          ],
          [
            -90.95937760499999,
            30.133970792000014
          ],
          [
            -90.953669864,
            30.134601754000016
          ],
          [
            -90.86987765399999,
            30.131706721
          ],
          [
            -90.83116801400001,
            30.131484021999995
          ]
        ]
      },
      "properties": {
        "objectid": 2571623,
        "event_id": "Hillaryville",
        "stormdate": 1771135260000,
        "starttime": 1771135260000,
        "endtime": 1771136400000,
        "startlat": 30.1391,
        "startlon": -91.0864,
        "endlat": 30.1315,
        "endlon": -90.8312,
        "length": 15.3171,
        "width": 150,
        "injuries": 0,
        "fatalities": 0,
        "efscale": "EF1",
        "efnum": 1,
        "qc": "Y",
        "maxwind": 90,
        "globalid": "{AEFBE998-270E-4F73-B297-E2C180178B61}",
        "cropdamage": 0,
        "propdamage": 0,
        "edit_user": null,
        "edit_time": null,
        "created_user": "dat_editor",
        "created_date": 1771443697000,
        "last_edited_user": "dat_editor",
        "last_edited_date": 1780950083000,
        "comments": "An NWS storm survey team determined that an EF-1 tornado with peak winds of 90 mph embedded in a line of storms touched down along Highway 1 in far western Ascension Parish just after midnight on February 15th. Here, the tornado mainly snapped large branches and small tree trunks. The tornado continued eastward causing minor tree damage as it crossed Hwy 405 and the Mississippi River. More damage to large branches and tree tops was observed along River Rd north of Darrow. The tornado continued to move east-southeast over inaccessible areas until it reached Ruffin Martinez Rd and Highway 22. More large branches were snapped here as it continued moving to the east-southeast towards Walter Hill Rd. The tornado then crossed the Mississippi River a 2nd time and remained over either open fields or a refinery. The tornado reached peak intensity as it approached Highway 70 where it snapped a few tree trunks. The tornado then continued over the marsh east of Highway 70 where it likely lifted near the Ascension/St. James Parish line. This track remains preliminary and additional changes could occur after further review of high-resolution satellite imagery in the coming weeks.",
        "st_length(shape)": 0.25568079467614163,
        "wfo": "LIX"
      }
    },
    {
      "type": "Feature",
      "id": 2571624,
      "geometry": {
        "type": "LineString",
        "coordinates": [
          [
            -90.84369929399998,
            29.778175095999984
          ],
          [
            -90.813572722,
            29.77415216899999
          ],
          [
            -90.77138693900002,
            29.77061335000002
          ],
          [
            -90.715768653,
            29.77597740599998
          ]
        ]
      },
      "properties": {
        "objectid": 2571624,
        "event_id": "Thibodaux",
        "stormdate": 1771137900000,
        "starttime": 1771137900000,
        "endtime": 1771138560000,
        "startlat": 29.7782,
        "startlon": -90.8437,
        "endlat": 29.776,
        "endlon": -90.7158,
        "length": 7.7404,
        "width": 50,
        "injuries": 0,
        "fatalities": 0,
        "efscale": "EF0",
        "efnum": 0,
        "qc": "Y",
        "maxwind": 85,
        "globalid": "{C3AB6D2A-99AB-4775-B3B8-D473ABD307CF}",
        "cropdamage": 0,
        "propdamage": 0,
        "edit_user": null,
        "edit_time": null,
        "created_user": "dat_editor",
        "created_date": 1771444903000,
        "last_edited_user": "dat_editor",
        "last_edited_date": 1780950083000,
        "comments": "An NWS storm survey team confirmed an EF-0 with peak winds of 85 mph touched down on the southern side of Thibodaux at 12:45am on February 15th. An trailer RV was partially flipped off of Talbot Ave as the tornado moved to the east-southeast. The tornado then reach peak strength as it impacted Tabernacle Pentecostal Church. Here, the tornado lifted a significant portion of the roof of the church, displacing it to the east. The wood framing of the roofing had evidence of rotting, so the lower bound for that damage was used in this case. The tornado slightly weakened as it moved east-southeast where minimal damage was found until it reached Percy Brown Rd where multiple large branches were snapped along it. The tornado remained very weak as it continued to the east-southeast where the next notable damage came on Crossing North St where a backyard awning was uplifted. As the tornado moved to the east-northeast, vegetation damage was noted on high-resolution imagery north of Rousseau where the tornado appeared to have lifted though additional analysis will be needed to determine the end point over inaccessible areas. This track remains preliminary and additional changes could occur after further review of high-resolution satellite imagery in the coming weeks.",
        "st_length(shape)": 0.12860428981235744,
        "wfo": "LIX"
      }
    },
    {
      "type": "Feature",
      "id": 2571625,
      "geometry": {
        "type": "LineString",
        "coordinates": [
          [
            -90.214696,
            30.759751403999985
          ],
          [
            -90.18997676200001,
            30.768048593000003
          ],
          [
            -90.17362601500002,
            30.77523891200002
          ],
          [
            -90.13547427399999,
            30.78301860099998
          ],
          [
            -90.07470614699997,
            30.793046464999975
          ],
          [
            -90.02466685600001,
            30.80543238299998
          ]
        ]
      },
      "properties": {
        "objectid": 2571625,
        "event_id": "Bogue Chitto",
        "stormdate": 1771137900000,
        "starttime": 1771137900000,
        "endtime": 1771138800000,
        "startlat": 30.7598,
        "startlon": -90.2147,
        "endlat": 30.8054,
        "endlon": -90.0247,
        "length": 11.7761,
        "width": 125,
        "injuries": 0,
        "fatalities": 0,
        "efscale": "EF0",
        "efnum": 0,
        "qc": "Y",
        "maxwind": 85,
        "globalid": "{8F79E1E1-9642-4AE7-8821-0B7949A37383}",
        "cropdamage": 0,
        "propdamage": 0,
        "edit_user": null,
        "edit_time": null,
        "created_user": "dat_editor",
        "created_date": 1771450710000,
        "last_edited_user": "dat_editor",
        "last_edited_date": 1780950083000,
        "comments": "An NWS ground survey confirmed an EF-0 tornado with maximum sustained winds estimated near 85 mph tracked across parts of southwest and central Washington Parish, south of Franklinton, LA. This tornado began near Sam Smith Rd where it snapped a rotted large hardwood tree. Additional tree debris and minor damage to skirting of a manufactured home was noted nearby. The tornado continued east-northeast where more abundant tree damage was identified including snaps of smaller tree trunks and branches along Daniels Rd, west of LA Hwy 25. This was where the tornado appeared to be at its strongest and widest, spanning about 75 yards wide. The tornado continued across the Bogue Chitto River, and additional minor tree damage was found by the survey team along LA Hwy 16, Tullos Rd, and Gene Williams Rd. Near Lee Rd and Thigpen Rd was where the last area of more concentrated minor tree damage was noted and this was the estimated end point of this tornado damage path. No additional damage was identified on Moore Rd nor LA Hwy 439, however, minor sporadic tree damage did continue farther east, north of Bogalusa, LA.",
        "st_length(shape)": 0.19601271916501217,
        "wfo": "LIX"
      }
    },
    {
      "type": "Feature",
      "id": 2571644,
      "geometry": {
        "type": "LineString",
        "coordinates": [
          [
            -90.92788944,
            31.13678216400001
          ],
          [
            -90.918519591,
            31.14065739099999
          ],
          [
            -90.90392360599998,
            31.147542210999973
          ],
          [
            -90.88815766599998,
            31.15671108800001
          ],
          [
            -90.86962164099998,
            31.166329646999998
          ],
          [
            -90.86640298999998,
            31.169010264999997
          ],
          [
            -90.84743440800003,
            31.176243881999994
          ]
        ]
      },
      "properties": {
        "objectid": 2571644,
        "event_id": "Enterprise, MS Tornado",
        "stormdate": 1771132320000,
        "starttime": 1771132320000,
        "endtime": 1771132740000,
        "startlat": 31.1368,
        "startlon": -90.9279,
        "endlat": 31.1762,
        "endlon": -90.8474,
        "length": 5.5073,
        "width": 175,
        "injuries": 0,
        "fatalities": 0,
        "efscale": "EF1",
        "efnum": 1,
        "qc": "Y",
        "maxwind": 100,
        "globalid": "{07EE34A2-0093-431B-8BDE-E811BB344281}",
        "cropdamage": 0,
        "propdamage": 0,
        "edit_user": null,
        "edit_time": null,
        "created_user": "dat_editor",
        "created_date": 1772044880000,
        "last_edited_user": "dat_editor",
        "last_edited_date": 1780950083000,
        "comments": "An NWS storm survey with additional support from a local storm report has confirmed an EF-1 tornado occurred west of Liberty, MS in Amite County. This tornado began near Berwick Cassels and Smylie Rd where minor tree damage was identified. Additional patches of increasingly more notable tree damage as wide as 175 yards occurred as the tornado tracked northeast along Smylie Rd. The tornado reached peak intensity with maximum sustained winds near 100 mph as it approached Enterprise Rd and Lower Liberty Gloster Rd where it snapped tree trunks and uprooted numerous trees. A manufactured observed minor roof damage. More tree damage from this tornado was identified where it crossed MS Hwy 24, moving northeast. A local storm report identified additional notable tree damage with a few uprooted/snapped medium to large pine trees near Rattlesnake Ln. This tornado evidently lifted near the Amite River just before reaching Old 24 Compromise Rd.",
        "st_length(shape)": 0.08988889229872325,
        "wfo": "LIX"
      }
    },
    {
      "type": "Feature",
      "id": 2571645,
      "geometry": {
        "type": "LineString",
        "coordinates": [
          [
            -90.70508689799999,
            31.150281112000016
          ],
          [
            -90.68886489800002,
            31.17025878200002
          ],
          [
            -90.68234176599998,
            31.17617048300002
          ],
          [
            -90.67079753799999,
            31.18542284
          ],
          [
            -90.653330993,
            31.20109838000002
          ],
          [
            -90.62453479700002,
            31.221872727000004
          ],
          [
            -90.60877294199997,
            31.235589285000003
          ],
          [
            -90.594439217,
            31.245088590000023
          ],
          [
            -90.58480711099998,
            31.25254874799998
          ],
          [
            -90.579666804,
            31.260252881999975
          ],
          [
            -90.57013959800003,
            31.272382560999972
          ],
          [
            -90.56053610599997,
            31.281071278000013
          ]
        ]
      },
      "properties": {
        "objectid": 2571645,
        "event_id": "Peoria, MS",
        "stormdate": 1771133220000,
        "starttime": 1771133220000,
        "endtime": 1771134060000,
        "startlat": 31.1503,
        "startlon": -90.7051,
        "endlat": 31.2811,
        "endlon": -90.5605,
        "length": 12.5088,
        "width": 200,
        "injuries": 0,
        "fatalities": 0,
        "efscale": "EF1",
        "efnum": 1,
        "qc": "Y",
        "maxwind": 100,
        "globalid": "{46941C2F-6E4A-417E-AEBD-8D3E9834F3B4}",
        "cropdamage": 0,
        "propdamage": 0,
        "edit_user": null,
        "edit_time": null,
        "created_user": "dat_editor",
        "created_date": 1772046188000,
        "last_edited_user": "dat_editor",
        "last_edited_date": 1780950083000,
        "comments": "An EF-1 tornado with peak winds of 100 mph tracked north of Peoria, MS in Amite County. The tornado began near Patterson Rd where minor tree damage was identified. This minor tree damage continued northeast becoming gradually more severe as the tornado approached Peoria Rd. Dozens of trees were snapped and uprooted near and northeast of Peoria Rd as the tornado reached its peak intensity and a width of 200 yards. The tornado tracked northeast, crossing Highway 24 and East Fork Rd. Numerous trees were snapped and uprooted along this portion of the path. Additional minor tree damage was identified beyond East Fork Rd and Pray Rd on high resolution satellite imagery as the tornado evidently weakened. Patches of tree damage continued through Bass, Barron, Brown, and Thompson roads. Another brief swath of heavier tree damage occurred north of Thompson Rd as the tornado briefly reached a second peak at EF-1 intensity. The tornado weakened again and is estimated to have lifted after crossing Tangipahoa Rd and Hwy 570 where tree damage became too sparse to be considered a coherent track.",
        "st_length(shape)": 0.19621871124102652,
        "wfo": "LIX"
      }
    },
    {
      "type": "Feature",
      "id": 2571972,
      "geometry": {
        "type": "LineString",
        "coordinates": [
          [
            -89.71054513399997,
            30.734988997000016
          ],
          [
            -89.700455261,
            30.735591492000026
          ],
          [
            -89.690851759,
            30.738267828999994
          ],
          [
            -89.68019921400003,
            30.739755562000028
          ],
          [
            -89.66428884599998,
            30.742017599000008
          ]
        ]
      },
      "properties": {
        "objectid": 2571972,
        "event_id": "Pearl River",
        "stormdate": 1771140720000,
        "starttime": 1771140720000,
        "endtime": 1771140900000,
        "startlat": 30.735,
        "startlon": -89.7105,
        "endlat": 30.742,
        "endlon": -89.6643,
        "length": 2.8039,
        "width": 70,
        "injuries": 0,
        "fatalities": 0,
        "efscale": "EF0",
        "efnum": 0,
        "qc": "Y",
        "maxwind": 85,
        "globalid": "{119C6FB2-2390-493B-987E-75333495D927}",
        "cropdamage": 0,
        "propdamage": 0,
        "edit_user": null,
        "edit_time": null,
        "created_user": "dat_editor",
        "created_date": 1772216037000,
        "last_edited_user": "dat_editor",
        "last_edited_date": 1780950083000,
        "comments": "The track of an EF-0 tornado was identified via high resolution satellite imagery in association with a quick spin-up circulation within a line of storms. This tornado evidently damaged and/or displaced trees along mainly inaccessible areas near South Valley Rd and Kennedy Creek in Pearl River County, MS. The damage path peaked at approximately 70 yards wide and apparently ended after crossing Sun Valley Acres Rd, prior to reaching John Amacker Rd.",
        "st_length(shape)": 0.046903596492570185,
        "wfo": "LIX"
      }
    },
    {
      "type": "Feature",
      "id": 2602374,
      "geometry": {
        "type": "LineString",
        "coordinates": [
          [
            -91.24039073699998,
            30.70774933199999
          ],
          [
            -91.23056312300002,
            30.70789692400001
          ],
          [
            -91.21519942999998,
            30.70774933199999
          ],
          [
            -91.20747466799997,
            30.709852489000014
          ],
          [
            -91.18082423999999,
            30.70786002599999
          ]
        ]
      },
      "properties": {
        "objectid": 2602374,
        "event_id": "Slaughter",
        "stormdate": 1771132140000,
        "starttime": 1771132140000,
        "endtime": 1771132500000,
        "startlat": 30.7077,
        "startlon": -91.2404,
        "endlat": 30.7079,
        "endlon": -91.1808,
        "length": 3.574,
        "width": 100,
        "injuries": 0,
        "fatalities": 0,
        "efscale": "EF0",
        "efnum": 0,
        "qc": "Y",
        "maxwind": 80,
        "globalid": "{CBDDD578-E02F-40A9-9EB6-39A6298DF74A}",
        "cropdamage": 0,
        "propdamage": 0,
        "edit_user": null,
        "edit_time": null,
        "created_user": "dat_editor",
        "created_date": 1774421718000,
        "last_edited_user": "dat_editor",
        "last_edited_date": 1780950083000,
        "comments": "The damage path of an EF-0 tornado was identified in extreme southwestern East Feliciana Parish, near Lindsay, LA. This tornado caused predominantly minor tree damage including evident displacement and damage of trees consistent with maximum estimated winds near 80 mph. The tornado tracked from King's View Circle through Highway 964 and Thompson Rd before evidently dissipating over open rural fields near the parish line. This damage path was closely located with a strong area of rotation on KHDC radar imagery.",
        "st_length(shape)": 0.05992387834901265,
        "wfo": "LIX"
      }
    }
  ]
}